[Satellite]
VERSION=1.1
NAME=GLOBALSTAR M091 [+]
NICKNAME=GLOBALSTAR M091 [+]
TLE1=1 37741U 11033C   17186.27007191 -.00000114  00000-0 -58493-4 0  9991
TLE2=2 37741  52.0001 113.9660 0000743 358.1361 167.1138 12.62268144276625
